[{"OBJECT_NAME":"STARLINK-36844","OBJECT_ID":"2026-044S","EPOCH":"2026-04-04T22:00:01.999584","MEAN_MOTION":15.49319868,"ECCENTRICITY":0.00019289,"INCLINATION":97.2849,"RA_OF_ASC_NODE":56.2451,"ARG_OF_PERICENTER":92.4236,"MEAN_ANOMALY":200.4696,"EPHEMERIS_TYPE":0,"CLASSIFICATION_TYPE":"U","NORAD_CAT_ID":68117,"ELEMENT_SET_NO":999,"REV_AT_EPOCH":557,"BSTAR":-0.038771985,"MEAN_MOTION_DOT":-0.01904442,"MEAN_MOTION_DDOT":0},{"OBJECT_NAME":"STARLINK-36789","OBJECT_ID":"2026-044T","EPOCH":"2026-04-04T22:00:01.999584","MEAN_MOTION":15.49013033,"ECCENTRICITY":0.00018787,"INCLINATION":97.2851,"RA_OF_ASC_NODE":56.2537,"ARG_OF_PERICENTER":107.4736,"MEAN_ANOMALY":205.8959,"EPHEMERIS_TYPE":0,"CLASSIFICATION_TYPE":"U","NORAD_CAT_ID":68118,"ELEMENT_SET_NO":999,"REV_AT_EPOCH":557,"BSTAR":-0.03968974,"MEAN_MOTION_DOT":-0.01926086,"MEAN_MOTION_DDOT":0},{"OBJECT_NAME":"STARLINK-36850","OBJECT_ID":"2026-044U","EPOCH":"2026-04-04T22:00:01.999584","MEAN_MOTION":15.49573825,"ECCENTRICITY":0.00018259,"INCLINATION":97.2854,"RA_OF_ASC_NODE":56.255,"ARG_OF_PERICENTER":98.2664,"MEAN_ANOMALY":217.36,"EPHEMERIS_TYPE":0,"CLASSIFICATION_TYPE":"U","NORAD_CAT_ID":68119,"ELEMENT_SET_NO":999,"REV_AT_EPOCH":557,"BSTAR":-0.027496638,"MEAN_MOTION_DOT":-0.01364039,"MEAN_MOTION_DDOT":0},{"OBJECT_NAME":"STARLINK-36868","OBJECT_ID":"2026-044V","EPOCH":"2026-04-04T22:00:01.999584","MEAN_MOTION":15.49571651,"ECCENTRICITY":0.00017056,"INCLINATION":97.2853,"RA_OF_ASC_NODE":56.2635,"ARG_OF_PERICENTER":107.5374,"MEAN_ANOMALY":228.2434,"EPHEMERIS_TYPE":0,"CLASSIFICATION_TYPE":"U","NORAD_CAT_ID":68120,"ELEMENT_SET_NO":999,"REV_AT_EPOCH":557,"BSTAR":-0.038874336,"MEAN_MOTION_DOT":-0.01924189,"MEAN_MOTION_DDOT":0},{"OBJECT_NAME":"STARLINK-36855","OBJECT_ID":"2026-044W","EPOCH":"2026-04-04T22:00:01.999584","MEAN_MOTION":15.49237158,"ECCENTRICITY":0.00016057,"INCLINATION":97.2848,"RA_OF_ASC_NODE":56.2502,"ARG_OF_PERICENTER":101.4823,"MEAN_ANOMALY":206.2829,"EPHEMERIS_TYPE":0,"CLASSIFICATION_TYPE":"U","NORAD_CAT_ID":68121,"ELEMENT_SET_NO":999,"REV_AT_EPOCH":557,"BSTAR":-0.0017609125,"MEAN_MOTION_DOT":-0.0009488,"MEAN_MOTION_DDOT":0},{"OBJECT_NAME":"STARLINK-36366","OBJECT_ID":"2026-044X","EPOCH":"2026-04-04T22:00:01.999584","MEAN_MOTION":15.49202183,"ECCENTRICITY":0.00017971,"INCLINATION":97.285,"RA_OF_ASC_NODE":56.2538,"ARG_OF_PERICENTER":103.2841,"MEAN_ANOMALY":213.2869,"EPHEMERIS_TYPE":0,"CLASSIFICATION_TYPE":"U","NORAD_CAT_ID":68122,"ELEMENT_SET_NO":999,"REV_AT_EPOCH":561,"BSTAR":-0.00078010505,"MEAN_MOTION_DOT":-0.00042312,"MEAN_MOTION_DDOT":0},{"OBJECT_NAME":"STARLINK-36922","OBJECT_ID":"2026-044Y","EPOCH":"2026-04-04T22:00:01.999584","MEAN_MOTION":15.49137093,"ECCENTRICITY":0.00016647,"INCLINATION":97.2853,"RA_OF_ASC_NODE":56.2646,"ARG_OF_PERICENTER":76.4198,"MEAN_ANOMALY":265.3929,"EPHEMERIS_TYPE":0,"CLASSIFICATION_TYPE":"U","NORAD_CAT_ID":68123,"ELEMENT_SET_NO":999,"REV_AT_EPOCH":561,"BSTAR":0.0014280923,"MEAN_MOTION_DOT":0.00078214,"MEAN_MOTION_DDOT":0},{"OBJECT_NAME":"STARLINK-36938","OBJECT_ID":"2026-044Z","EPOCH":"2026-04-04T20:19:30.299808","MEAN_MOTION":15.75145208,"ECCENTRICITY":0.00015494,"INCLINATION":97.2862,"RA_OF_ASC_NODE":56.3682,"ARG_OF_PERICENTER":11.8244,"MEAN_ANOMALY":348.3057,"EPHEMERIS_TYPE":0,"CLASSIFICATION_TYPE":"U","NORAD_CAT_ID":68124,"ELEMENT_SET_NO":999,"REV_AT_EPOCH":560,"BSTAR":0.0011738183,"MEAN_MOTION_DOT":0.00178312,"MEAN_MOTION_DDOT":0},{"OBJECT_NAME":"STARLINK-36839","OBJECT_ID":"2026-044AA","EPOCH":"2026-04-04T22:00:01.999584","MEAN_MOTION":15.49133004,"ECCENTRICITY":0.00018465,"INCLINATION":97.2852,"RA_OF_ASC_NODE":56.2622,"ARG_OF_PERICENTER":86.3508,"MEAN_ANOMALY":250.3744,"EPHEMERIS_TYPE":0,"CLASSIFICATION_TYPE":"U","NORAD_CAT_ID":68125,"ELEMENT_SET_NO":999,"REV_AT_EPOCH":557,"BSTAR":0.001377387,"MEAN_MOTION_DOT":0.00075396,"MEAN_MOTION_DDOT":0},{"OBJECT_NAME":"ECHOSTAR 25","OBJECT_ID":"2026-045A","EPOCH":"2026-04-04T17:18:32.707296","MEAN_MOTION":1.00270991,"ECCENTRICITY":0.00017293,"INCLINATION":0.035,"RA_OF_ASC_NODE":281.285,"ARG_OF_PERICENTER":153.5686,"MEAN_ANOMALY":248.9587,"EPHEMERIS_TYPE":0,"CLASSIFICATION_TYPE":"U","NORAD_CAT_ID":68126,"ELEMENT_SET_NO":999,"REV_AT_EPOCH":25,"BSTAR":0,"MEAN_MOTION_DOT":5.9e-7,"MEAN_MOTION_DDOT":0},{"OBJECT_NAME":"ICOR SV","OBJECT_ID":"2026-046A","EPOCH":"2026-04-04T21:32:54.794688","MEAN_MOTION":16.01613398,"ECCENTRICITY":0.0085624,"INCLINATION":123.0717,"RA_OF_ASC_NODE":326.0041,"ARG_OF_PERICENTER":238.0093,"MEAN_ANOMALY":121.2641,"EPHEMERIS_TYPE":0,"CLASSIFICATION_TYPE":"U","NORAD_CAT_ID":68127,"ELEMENT_SET_NO":999,"REV_AT_EPOCH":377,"BSTAR":0.00059477537,"MEAN_MOTION_DOT":0.00536291,"MEAN_MOTION_DDOT":1.2315335e-5},{"OBJECT_NAME":"FIREFLY ALPHA R/B","OBJECT_ID":"2026-046B","EPOCH":"2026-04-04T13:51:46.143360","MEAN_MOTION":15.57923912,"ECCENTRICITY":0.001735,"INCLINATION":123.0919,"RA_OF_ASC_NODE":319.2288,"ARG_OF_PERICENTER":30.6209,"MEAN_ANOMALY":329.5861,"EPHEMERIS_TYPE":0,"CLASSIFICATION_TYPE":"U","NORAD_CAT_ID":68128,"ELEMENT_SET_NO":999,"REV_AT_EPOCH":367,"BSTAR":0.00059832,"MEAN_MOTION_DOT":0.00045538,"MEAN_MOTION_DDOT":0},{"OBJECT_NAME":"GUOWANG GROUP 20 OBJECT A","OBJECT_ID":"2026-047A","EPOCH":"2026-04-04T02:24:09.516096","MEAN_MOTION":13.82826474,"ECCENTRICITY":6.607e-5,"INCLINATION":50.002,"RA_OF_ASC_NODE":327.8486,"ARG_OF_PERICENTER":106.3931,"MEAN_ANOMALY":253.7037,"EPHEMERIS_TYPE":0,"CLASSIFICATION_TYPE":"U","NORAD_CAT_ID":68129,"ELEMENT_SET_NO":999,"REV_AT_EPOCH":312,"BSTAR":5.0704986e-5,"MEAN_MOTION_DOT":-8.8e-7,"MEAN_MOTION_DDOT":0},{"OBJECT_NAME":"GUOWANG GROUP 20 OBJECT B","OBJECT_ID":"2026-047B","EPOCH":"2026-04-01T05:04:40.456704","MEAN_MOTION":13.87767313,"ECCENTRICITY":1.339e-5,"INCLINATION":50.0054,"RA_OF_ASC_NODE":339.2252,"ARG_OF_PERICENTER":185.6237,"MEAN_ANOMALY":174.4659,"EPHEMERIS_TYPE":0,"CLASSIFICATION_TYPE":"U","NORAD_CAT_ID":68130,"ELEMENT_SET_NO":999,"REV_AT_EPOCH":271,"BSTAR":6.9791497e-5,"MEAN_MOTION_DOT":-6.2e-7,"MEAN_MOTION_DDOT":0},{"OBJECT_NAME":"GUOWANG GROUP 20 OBJECT C","OBJECT_ID":"2026-047C","EPOCH":"2026-04-02T12:08:18.567744","MEAN_MOTION":13.863205,"ECCENTRICITY":6.698e-5,"INCLINATION":50.0019,"RA_OF_ASC_NODE":334.0677,"ARG_OF_PERICENTER":236.5521,"MEAN_ANOMALY":123.5312,"EPHEMERIS_TYPE":0,"CLASSIFICATION_TYPE":"U","NORAD_CAT_ID":68131,"ELEMENT_SET_NO":999,"REV_AT_EPOCH":290,"BSTAR":4.2135642e-5,"MEAN_MOTION_DOT":-9.6e-7,"MEAN_MOTION_DDOT":0},{"OBJECT_NAME":"GUOWANG GROUP 20 OBJECT D","OBJECT_ID":"2026-047D","EPOCH":"2026-04-02T13:48:14.018400","MEAN_MOTION":13.8659404,"ECCENTRICITY":7.103e-5,"INCLINATION":50.0067,"RA_OF_ASC_NODE":333.7806,"ARG_OF_PERICENTER":245.036,"MEAN_ANOMALY":115.0463,"EPHEMERIS_TYPE":0,"CLASSIFICATION_TYPE":"U","NORAD_CAT_ID":68132,"ELEMENT_SET_NO":999,"REV_AT_EPOCH":290,"BSTAR":5.1916391e-5,"MEAN_MOTION_DOT":-8.4e-7,"MEAN_MOTION_DDOT":0}]
